{
  "norad_id": 53691,
  "name": "STARLINK-4560",
  "history": [
    {
      "epoch": "2026-03-28T22:48:58.959360Z",
      "apogee_km": 551.1772226348612,
      "perigee_km": 547.8380979086105,
      "latitude_deg": -6.302141758118096e-05,
      "longitude_deg": 161.58267308946913,
      "height_km": 552.5026372309468,
      "semi_major_axis_km": 6927.644660271736,
      "eccentricity": 0.000241,
      "inclination_deg": 97.6041,
      "raan_deg": 330.1921,
      "arg_perigee_deg": 87.7286,
      "mean_anomaly_deg": 272.4216,
      "mean_motion_rev_day": 15.05651139
    },
    {
      "epoch": "2026-03-29T05:11:46.736160Z",
      "apogee_km": 551.1801872062388,
      "perigee_km": 547.809201623737,
      "latitude_deg": -1.3014223529906549e-05,
      "longitude_deg": 65.88358179738141,
      "height_km": 552.4712087502774,
      "semi_major_axis_km": 6927.631694414988,
      "eccentricity": 0.0002433,
      "inclination_deg": 97.6039,
      "raan_deg": 330.4541,
      "arg_perigee_deg": 87.1232,
      "mean_anomaly_deg": 273.0273,
      "mean_motion_rev_day": 15.05655366
    },
    {
      "epoch": "2026-03-29T22:44:29.099328Z",
      "apogee_km": 551.2664246612494,
      "perigee_km": 547.7707296570143,
      "latitude_deg": 3.494786734434819e-05,
      "longitude_deg": 162.70701091142783,
      "height_km": 552.5234906797327,
      "semi_major_axis_km": 6927.655577159131,
      "eccentricity": 0.0002523,
      "inclination_deg": 97.6042,
      "raan_deg": 331.1746,
      "arg_perigee_deg": 88.1638,
      "mean_anomaly_deg": 271.9878,
      "mean_motion_rev_day": 15.0564758
    },
    {
      "epoch": "2026-03-30T05:07:17.126688Z",
      "apogee_km": 551.2577749567345,
      "perigee_km": 547.7728887277253,
      "latitude_deg": -7.697380831093473e-05,
      "longitude_deg": 67.00689444315222,
      "height_km": 552.5231883916003,
      "semi_major_axis_km": 6927.65233184223,
      "eccentricity": 0.00025152,
      "inclination_deg": 97.6043,
      "raan_deg": 331.4366,
      "arg_perigee_deg": 88.2539,
      "mean_anomaly_deg": 271.8975,
      "mean_motion_rev_day": 15.05648638
    },
    {
      "epoch": "2026-03-30T14:41:29.310720Z",
      "apogee_km": 551.3004740106071,
      "perigee_km": 547.7397967961524,
      "latitude_deg": 0.00010227754694010597,
      "longitude_deg": -76.54382372955212,
      "height_km": 552.5161889524121,
      "semi_major_axis_km": 6927.6571354033795,
      "eccentricity": 0.00025699,
      "inclination_deg": 97.6042,
      "raan_deg": 331.8297,
      "arg_perigee_deg": 87.9152,
      "mean_anomaly_deg": 272.237,
      "mean_motion_rev_day": 15.05647072
    },
    {
      "epoch": "2026-03-31T14:36:59.385888Z",
      "apogee_km": 551.3865785941616,
      "perigee_km": 547.6678084550786,
      "latitude_deg": -8.514544708768418e-06,
      "longitude_deg": -75.4190866098967,
      "height_km": 552.5276694276705,
      "semi_major_axis_km": 6927.66419352462,
      "eccentricity": 0.0002684,
      "inclination_deg": 97.6036,
      "raan_deg": 332.8123,
      "arg_perigee_deg": 88.1457,
      "mean_anomaly_deg": 272.0077,
      "mean_motion_rev_day": 15.05644771
    },
    {
      "epoch": "2026-04-01T04:58:17.371200Z",
      "apogee_km": 551.4181117137559,
      "perigee_km": 547.6336680302775,
      "latitude_deg": -3.569625309159254e-05,
      "longitude_deg": 69.25664026937956,
      "height_km": 552.502013573003,
      "semi_major_axis_km": 6927.662889872016,
      "eccentricity": 0.00027314,
      "inclination_deg": 97.6042,
      "raan_deg": 333.4025,
      "arg_perigee_deg": 87.4431,
      "mean_anomaly_deg": 272.7108,
      "mean_motion_rev_day": 15.05645196
    },
    {
      "epoch": "2026-04-02T14:27:59.139648Z",
      "apogee_km": 551.2403676013491,
      "perigee_km": 547.8063263673484,
      "latitude_deg": 4.692472047016903e-05,
      "longitude_deg": -73.16729263056212,
      "height_km": 552.5251946695946,
      "semi_major_axis_km": 6927.6603469843485,
      "eccentricity": 0.00024785,
      "inclination_deg": 97.6038,
      "raan_deg": 334.7782,
      "arg_perigee_deg": 88.0255,
      "mean_anomaly_deg": 272.1256,
      "mean_motion_rev_day": 15.05646025
    },
    {
      "epoch": "2026-04-02T22:26:28.981824Z",
      "apogee_km": 551.2340872520699,
      "perigee_km": 547.7911839361732,
      "latitude_deg": -2.271331613843031e-05,
      "longitude_deg": 167.20795463535507,
      "height_km": 552.5084731209083,
      "semi_major_axis_km": 6927.649635594122,
      "eccentricity": 0.00024849,
      "inclination_deg": 97.6038,
      "raan_deg": 335.1053,
      "arg_perigee_deg": 87.8303,
      "mean_anomaly_deg": 272.3208,
      "mean_motion_rev_day": 15.05649517
    },
    {
      "epoch": "2026-04-03T14:23:29.333184Z",
      "apogee_km": 551.6283346667215,
      "perigee_km": 547.4052369189012,
      "latitude_deg": 7.740159812659267e-05,
      "longitude_deg": -72.04346988735547,
      "height_km": 552.4417209990633,
      "semi_major_axis_km": 6927.653785792811,
      "eccentricity": 0.0003048,
      "inclination_deg": 97.603,
      "raan_deg": 335.7604,
      "arg_perigee_deg": 86.3337,
      "mean_anomaly_deg": 273.8239,
      "mean_motion_rev_day": 15.05648164
    },
    {
      "epoch": "2026-04-04T06:20:29.525568Z",
      "apogee_km": 551.0769917786074,
      "perigee_km": 547.9993028176686,
      "latitude_deg": 9.20804334519748e-05,
      "longitude_deg": 48.706080856873434,
      "height_km": 552.5488410989385,
      "semi_major_axis_km": 6927.675147298138,
      "eccentricity": 0.00022213,
      "inclination_deg": 97.6074,
      "raan_deg": 336.4158,
      "arg_perigee_deg": 88.1134,
      "mean_anomaly_deg": 272.0348,
      "mean_motion_rev_day": 15.056412
    },
    {
      "epoch": "2026-04-05T09:27:23.395392Z",
      "apogee_km": 551.3919857022347,
      "perigee_km": 547.6594995697578,
      "latitude_deg": -3.7955113730386116e-05,
      "longitude_deg": 1.9805671265358304,
      "height_km": 552.5710149100476,
      "semi_major_axis_km": 6927.662742635996,
      "eccentricity": 0.00026939,
      "inclination_deg": 97.6046,
      "raan_deg": 337.5283,
      "arg_perigee_deg": 89.5292,
      "mean_anomaly_deg": 270.6243,
      "mean_motion_rev_day": 15.05645244
    },
    {
      "epoch": "2026-04-05T15:50:11.380416Z",
      "apogee_km": 551.5298013734655,
      "perigee_km": 547.5076044723482,
      "latitude_deg": 8.995269365353673e-05,
      "longitude_deg": -93.71950505136812,
      "height_km": 552.502800239367,
      "semi_major_axis_km": 6927.655702922906,
      "eccentricity": 0.0002903,
      "inclination_deg": 97.6043,
      "raan_deg": 337.7902,
      "arg_perigee_deg": 87.8314,
      "mean_anomaly_deg": 272.3246,
      "mean_motion_rev_day": 15.05647539
    },
    {
      "epoch": "2026-04-06T06:11:28.684032Z",
      "apogee_km": 551.0412532675182,
      "perigee_km": 547.9591474770723,
      "latitude_deg": -5.31571294468463e-05,
      "longitude_deg": 50.95878334261401,
      "height_km": 553.0138754171968,
      "semi_major_axis_km": 6927.6372003722945,
      "eccentricity": 0.00022245,
      "inclination_deg": 97.6037,
      "raan_deg": 338.3801,
      "arg_perigee_deg": 107.052,
      "mean_anomaly_deg": 253.095,
      "mean_motion_rev_day": 15.05653571
    },
    {
      "epoch": "2026-04-07T09:18:23.436864Z",
      "apogee_km": 551.3416982102563,
      "perigee_km": 547.7267008249246,
      "latitude_deg": 4.709554561269156e-05,
      "longitude_deg": 4.230648185834883,
      "height_km": 552.6559268312938,
      "semi_major_axis_km": 6927.67119951759,
      "eccentricity": 0.00026091,
      "inclination_deg": 97.6032,
      "raan_deg": 339.4937,
      "arg_perigee_deg": 91.9315,
      "mean_anomaly_deg": 268.2211,
      "mean_motion_rev_day": 15.05642487
    },
    {
      "epoch": "2026-04-07T15:41:11.437440Z",
      "apogee_km": 551.3819019177981,
      "perigee_km": 547.6811413935293,
      "latitude_deg": -7.307314532264619e-05,
      "longitude_deg": -91.46945633805912,
      "height_km": 552.6270424666164,
      "semi_major_axis_km": 6927.668521655663,
      "eccentricity": 0.0002671,
      "inclination_deg": 97.6023,
      "raan_deg": 339.7556,
      "arg_perigee_deg": 91.0773,
      "mean_anomaly_deg": 269.0759,
      "mean_motion_rev_day": 15.0564336
    },
    {
      "epoch": "2026-04-08T14:00:59.014368Z",
      "apogee_km": 551.2982132239085,
      "perigee_km": 547.721469159801,
      "latitude_deg": -3.390543532078153e-05,
      "longitude_deg": -66.41775724321005,
      "height_km": 552.6368231540789,
      "semi_major_axis_km": 6927.646841191854,
      "eccentricity": 0.00025815,
      "inclination_deg": 97.6028,
      "raan_deg": 340.6726,
      "arg_perigee_deg": 92.1178,
      "mean_anomaly_deg": 268.0344,
      "mean_motion_rev_day": 15.05650428
    },
    {
      "epoch": "2026-04-09T09:09:23.338368Z",
      "apogee_km": 551.2648900499644,
      "perigee_km": 547.7931594983093,
      "latitude_deg": -8.28019876328953e-05,
      "longitude_deg": 6.480841288365521,
      "height_km": 552.6023003763617,
      "semi_major_axis_km": 6927.6660247741365,
      "eccentricity": 0.00025057,
      "inclination_deg": 97.6028,
      "raan_deg": 341.4586,
      "arg_perigee_deg": 90.4046,
      "mean_anomaly_deg": 269.7467,
      "mean_motion_rev_day": 15.05644174
    },
    {
      "epoch": "2026-04-10T04:17:47.387616Z",
      "apogee_km": 551.2217943759724,
      "perigee_km": 547.8228076165306,
      "latitude_deg": 2.046312126793842e-05,
      "longitude_deg": 79.3805677234639,
      "height_km": 552.5639039834325,
      "semi_major_axis_km": 6927.659300996251,
      "eccentricity": 0.00024532,
      "inclination_deg": 97.6028,
      "raan_deg": 342.2446,
      "arg_perigee_deg": 89.3429,
      "mean_anomaly_deg": 270.8079,
      "mean_motion_rev_day": 15.05646366
    },
    {
      "epoch": "2026-04-11T15:23:11.364000Z",
      "apogee_km": 551.1633626707426,
      "perigee_km": 547.8685709197352,
      "latitude_deg": 1.730302326380281e-05,
      "longitude_deg": -86.96933123716776,
      "height_km": 552.4937696614735,
      "semi_major_axis_km": 6927.652966795238,
      "eccentricity": 0.0002378,
      "inclination_deg": 97.6039,
      "raan_deg": 343.6857,
      "arg_perigee_deg": 87.0985,
      "mean_anomaly_deg": 273.0514,
      "mean_motion_rev_day": 15.05648431
    }
  ]
}